[{"OBJECT_NAME":"BANDWAGON-4 OBJECT M","OBJECT_ID":"2025-248M","EPOCH":"2026-03-09T00:50:26.830464","MEAN_MOTION":15.24295413,"ECCENTRICITY":0.00129441,"INCLINATION":45.4108,"RA_OF_ASC_NODE":294.9904,"ARG_OF_PERICENTER":207.5285,"MEAN_ANOMALY":152.4918,"EPHEMERIS_TYPE":0,"CLASSIFICATION_TYPE":"U","NORAD_CAT_ID":66304,"ELEMENT_SET_NO":999,"REV_AT_EPOCH":1803,"BSTAR":0.00095703617,"MEAN_MOTION_DOT":0.00023645,"MEAN_MOTION_DDOT":0},{"OBJECT_NAME":"STARLINK-35582","OBJECT_ID":"2025-265X","EPOCH":"2026-03-09T13:29:26.996928","MEAN_MOTION":15.27598737,"ECCENTRICITY":0.00036595,"INCLINATION":43.0013,"RA_OF_ASC_NODE":278.6784,"ARG_OF_PERICENTER":295.6523,"MEAN_ANOMALY":64.3951,"EPHEMERIS_TYPE":0,"CLASSIFICATION_TYPE":"U","NORAD_CAT_ID":66537,"ELEMENT_SET_NO":999,"REV_AT_EPOCH":1709,"BSTAR":0.0010915223,"MEAN_MOTION_DOT":0.00029917,"MEAN_MOTION_DDOT":0}]
