BANDWAGON-4 OBJECT M    
1 66304U 25248M   26068.03503276  .00023645  00000+0  95704-3 0  9995
2 66304  45.4108 294.9904 0012944 207.5285 152.4918 15.24295413 18037
STARLINK-35582          
1 66537U 25265X   26068.56211802  .00029917  00000+0  10915-2 0  9999
2 66537  43.0013 278.6784 0003659 295.6523  64.3951 15.27598737 17096
